CCSDS_OMM_VERS = 2.0
CREATION_DATE  = 
ORIGINATOR     = 

OBJECT_NAME    = TITAN 4B R/B
OBJECT_ID      = 2000-047B
CENTER_NAME    = EARTH
REF_FRAME      = TEME
TIME_SYSTEM    = UTC
MEAN_ELEMENT_THEORY = SGP/SGP4

EPOCH          = 2025-10-28T14:10:22.801152
MEAN_MOTION    = 15.08271569
ECCENTRICITY   = .00436823
INCLINATION    = 67.9908
RA_OF_ASC_NODE = 51.6091
ARG_OF_PERICENTER = 196.3789
MEAN_ANOMALY   = 163.5952

EPHEMERIS_TYPE = 0
CLASSIFICATION_TYPE = U
NORAD_CAT_ID   = 26474
ELEMENT_SET_NO = 999
REV_AT_EPOCH   = 37298
BSTAR          = .39157313E-3
MEAN_MOTION_DOT = .6088E-4
MEAN_MOTION_DDOT = 0

CCSDS_OMM_VERS = 2.0
CREATION_DATE  = 
ORIGINATOR     = 

OBJECT_NAME    = ENVISAT
OBJECT_ID      = 2002-009A
CENTER_NAME    = EARTH
REF_FRAME      = TEME
TIME_SYSTEM    = UTC
MEAN_ELEMENT_THEORY = SGP/SGP4

EPOCH          = 2025-10-28T12:14:38.249952
MEAN_MOTION    = 14.38973814
ECCENTRICITY   = .00013376
INCLINATION    = 98.3521
RA_OF_ASC_NODE = 253.4153
ARG_OF_PERICENTER = 85.5894
MEAN_ANOMALY   = 27.9604

EPHEMERIS_TYPE = 0
CLASSIFICATION_TYPE = U
NORAD_CAT_ID   = 27386
ELEMENT_SET_NO = 999
REV_AT_EPOCH   = 24016
BSTAR          = .87884026E-4
MEAN_MOTION_DOT = .228E-5
MEAN_MOTION_DDOT = 0

CCSDS_OMM_VERS = 2.0
CREATION_DATE  = 
ORIGINATOR     = 

OBJECT_NAME    = IDEFIX & ARIANE 42P R/B
OBJECT_ID      = 2002-021B
CENTER_NAME    = EARTH
REF_FRAME      = TEME
TIME_SYSTEM    = UTC
MEAN_ELEMENT_THEORY = SGP/SGP4

EPOCH          = 2025-10-28T09:52:57.218304
MEAN_MOTION    = 14.30900150
ECCENTRICITY   = .00110151
INCLINATION    = 98.5713
RA_OF_ASC_NODE = 236.7085
ARG_OF_PERICENTER = 212.8850
MEAN_ANOMALY   = 147.1648

EPHEMERIS_TYPE = 0
CLASSIFICATION_TYPE = U
NORAD_CAT_ID   = 27422
ELEMENT_SET_NO = 999
REV_AT_EPOCH   = 22510
BSTAR          = .19500398E-3
MEAN_MOTION_DOT = .469E-5
MEAN_MOTION_DDOT = 0

CCSDS_OMM_VERS = 2.0
CREATION_DATE  = 
ORIGINATOR     = 

OBJECT_NAME    = AQUA
OBJECT_ID      = 2002-022A
CENTER_NAME    = EARTH
REF_FRAME      = TEME
TIME_SYSTEM    = UTC
MEAN_ELEMENT_THEORY = SGP/SGP4

EPOCH          = 2025-10-28T15:47:57.254784
MEAN_MOTION    = 14.61644955
ECCENTRICITY   = .00013961
INCLINATION    = 98.3966
RA_OF_ASC_NODE = 261.8266
ARG_OF_PERICENTER = 51.7537
MEAN_ANOMALY   = 65.6370

EPHEMERIS_TYPE = 0
CLASSIFICATION_TYPE = U
NORAD_CAT_ID   = 27424
ELEMENT_SET_NO = 999
REV_AT_EPOCH   = 24944
BSTAR          = .33100661E-3
MEAN_MOTION_DOT = .1598E-4
MEAN_MOTION_DDOT = 0

CCSDS_OMM_VERS = 2.0
CREATION_DATE  = 
ORIGINATOR     = 

OBJECT_NAME    = CZ-4B R/B
OBJECT_ID      = 2002-024C
CENTER_NAME    = EARTH
REF_FRAME      = TEME
TIME_SYSTEM    = UTC
MEAN_ELEMENT_THEORY = SGP/SGP4

EPOCH          = 2025-10-28T14:32:12.105024
MEAN_MOTION    = 14.14514188
ECCENTRICITY   = .0050764
INCLINATION    = 98.9069
RA_OF_ASC_NODE = 350.5193
ARG_OF_PERICENTER = 39.0548
MEAN_ANOMALY   = 114.4407

EPHEMERIS_TYPE = 0
CLASSIFICATION_TYPE = U
NORAD_CAT_ID   = 27432
ELEMENT_SET_NO = 999
REV_AT_EPOCH   = 21056
BSTAR          = .5384591E-4
MEAN_MOTION_DOT = .6E-6
MEAN_MOTION_DDOT = 0

CCSDS_OMM_VERS = 2.0
CREATION_DATE  = 
ORIGINATOR     = 

OBJECT_NAME    = MIDORI II (ADEOS-II)
OBJECT_ID      = 2002-056A
CENTER_NAME    = EARTH
REF_FRAME      = TEME
TIME_SYSTEM    = UTC
MEAN_ELEMENT_THEORY = SGP/SGP4

EPOCH          = 2025-10-28T11:44:16.566432
MEAN_MOTION    = 14.29158405
ECCENTRICITY   = .00018962
INCLINATION    = 98.7558
RA_OF_ASC_NODE = 254.2263
ARG_OF_PERICENTER = 54.7737
MEAN_ANOMALY   = 305.3622

EPHEMERIS_TYPE = 0
CLASSIFICATION_TYPE = U
NORAD_CAT_ID   = 27597
ELEMENT_SET_NO = 999
REV_AT_EPOCH   = 19141
BSTAR          = .20054951E-3
MEAN_MOTION_DOT = .464E-5
MEAN_MOTION_DDOT = 0

CCSDS_OMM_VERS = 2.0
CREATION_DATE  = 
ORIGINATOR     = 

OBJECT_NAME    = H-2A R/B
OBJECT_ID      = 2002-056E
CENTER_NAME    = EARTH
REF_FRAME      = TEME
TIME_SYSTEM    = UTC
MEAN_ELEMENT_THEORY = SGP/SGP4

EPOCH          = 2025-10-28T12:51:00.866880
MEAN_MOTION    = 14.33628058
ECCENTRICITY   = .00698877
INCLINATION    = 98.2992
RA_OF_ASC_NODE = 262.1097
ARG_OF_PERICENTER = 194.4997
MEAN_ANOMALY   = 280.0780

EPHEMERIS_TYPE = 0
CLASSIFICATION_TYPE = U
NORAD_CAT_ID   = 27601
ELEMENT_SET_NO = 999
REV_AT_EPOCH   = 19517
BSTAR          = .17039431E-3
MEAN_MOTION_DOT = .444E-5
MEAN_MOTION_DDOT = 0

CCSDS_OMM_VERS = 2.0
CREATION_DATE  = 
ORIGINATOR     = 

OBJECT_NAME    = CZ-4B R/B
OBJECT_ID      = 2003-049C
CENTER_NAME    = EARTH
REF_FRAME      = TEME
TIME_SYSTEM    = UTC
MEAN_ELEMENT_THEORY = SGP/SGP4

EPOCH          = 2025-10-28T11:30:25.982496
MEAN_MOTION    = 14.54844542
ECCENTRICITY   = .00471141
INCLINATION    = 98.6756
RA_OF_ASC_NODE = 286.3413
ARG_OF_PERICENTER = 275.4511
MEAN_ANOMALY   = 84.1311

EPHEMERIS_TYPE = 0
CLASSIFICATION_TYPE = U
NORAD_CAT_ID   = 28059
ELEMENT_SET_NO = 999
REV_AT_EPOCH   = 16737
BSTAR          = .17406748E-3
MEAN_MOTION_DOT = .706E-5
MEAN_MOTION_DDOT = 0

CCSDS_OMM_VERS = 2.0
CREATION_DATE  = 
ORIGINATOR     = 

OBJECT_NAME    = CZ-2C R/B
OBJECT_ID      = 2004-012C
CENTER_NAME    = EARTH
REF_FRAME      = TEME
TIME_SYSTEM    = UTC
MEAN_ELEMENT_THEORY = SGP/SGP4

EPOCH          = 2025-10-28T14:03:21.948480
MEAN_MOTION    = 15.51562200
ECCENTRICITY   = .00209218
INCLINATION    = 97.7499
RA_OF_ASC_NODE = 350.6029
ARG_OF_PERICENTER = 77.2176
MEAN_ANOMALY   = 283.1411

EPHEMERIS_TYPE = 0
CLASSIFICATION_TYPE = U
NORAD_CAT_ID   = 28222
ELEMENT_SET_NO = 999
REV_AT_EPOCH   = 18371
BSTAR          = .5802204E-3
MEAN_MOTION_DOT = .34673E-3
MEAN_MOTION_DDOT = 0

CCSDS_OMM_VERS = 2.0
CREATION_DATE  = 
ORIGINATOR     = 

OBJECT_NAME    = SL-16 R/B
OBJECT_ID      = 2004-021B
CENTER_NAME    = EARTH
REF_FRAME      = TEME
TIME_SYSTEM    = UTC
MEAN_ELEMENT_THEORY = SGP/SGP4

EPOCH          = 2025-10-28T13:50:47.679072
MEAN_MOTION    = 14.14571548
ECCENTRICITY   = .00072915
INCLINATION    = 70.9986
RA_OF_ASC_NODE = 149.7406
ARG_OF_PERICENTER = 249.8382
MEAN_ANOMALY   = 110.1957

EPHEMERIS_TYPE = 0
CLASSIFICATION_TYPE = U
NORAD_CAT_ID   = 28353
ELEMENT_SET_NO = 999
REV_AT_EPOCH   = 10415
BSTAR          = -.11360326E-3
MEAN_MOTION_DOT = -.266E-5
MEAN_MOTION_DDOT = 0

CCSDS_OMM_VERS = 2.0
CREATION_DATE  = 
ORIGINATOR     = 

OBJECT_NAME    = CZ-4B R/B
OBJECT_ID      = 2004-035C
CENTER_NAME    = EARTH
REF_FRAME      = TEME
TIME_SYSTEM    = UTC
MEAN_ELEMENT_THEORY = SGP/SGP4

EPOCH          = 2025-10-28T12:54:32.029344
MEAN_MOTION    = 15.26329612
ECCENTRICITY   = .00359078
INCLINATION    = 97.3673
RA_OF_ASC_NODE = 332.5033
ARG_OF_PERICENTER = 77.7183
MEAN_ANOMALY   = 282.8073

EPHEMERIS_TYPE = 0
CLASSIFICATION_TYPE = U
NORAD_CAT_ID   = 28415
ELEMENT_SET_NO = 999
REV_AT_EPOCH   = 15973
BSTAR          = .38087636E-3
MEAN_MOTION_DOT = .10007E-3
MEAN_MOTION_DDOT = 0

CCSDS_OMM_VERS = 2.0
CREATION_DATE  = 
ORIGINATOR     = 

OBJECT_NAME    = CZ-2C R/B
OBJECT_ID      = 2004-046B
CENTER_NAME    = EARTH
REF_FRAME      = TEME
TIME_SYSTEM    = UTC
MEAN_ELEMENT_THEORY = SGP/SGP4

EPOCH          = 2025-10-28T12:29:06.715968
MEAN_MOTION    = 14.26911070
ECCENTRICITY   = .01393544
INCLINATION    = 98.1944
RA_OF_ASC_NODE = 219.7192
ARG_OF_PERICENTER = 185.2325
MEAN_ANOMALY   = 174.7408

EPHEMERIS_TYPE = 0
CLASSIFICATION_TYPE = U
NORAD_CAT_ID   = 28480
ELEMENT_SET_NO = 999
REV_AT_EPOCH   = 8965
BSTAR          = .99887827E-4
MEAN_MOTION_DOT = .228E-5
MEAN_MOTION_DDOT = 0

