TITAN 4B R/B            
1 26474U 00047B   25301.59054168  .00006088  00000+0  39157-3 0  9992
2 26474  67.9908  51.6091 0043682 196.3789 163.5952 15.08271569372986
ENVISAT                 
1 27386U 02009A   25301.51016493  .00000228  00000+0  87884-4 0  9997
2 27386  98.3521 253.4153 0001337  85.5894  27.9604 14.38973814240161
IDEFIX & ARIANE 42P R/B 
1 27422U 02021B   25301.41177336  .00000469  00000+0  19500-3 0  9991
2 27422  98.5713 236.7085 0011015 212.8850 147.1648 14.30900150225101
AQUA                    
1 27424U 02022A   25301.65830156  .00001598  00000+0  33101-3 0  9993
2 27424  98.3966 261.8266 0001396  51.7537  65.6370 14.61644955249445
CZ-4B R/B               
1 27432U 02024C   25301.60569566  .00000060  00000+0  53846-4 0  9995
2 27432  98.9069 350.5193 0050764  39.0548 114.4407 14.14514188210560
MIDORI II (ADEOS-II)    
1 27597U 02056A   25301.48908063  .00000464  00000+0  20055-3 0  9990
2 27597  98.7558 254.2263 0001896  54.7737 305.3622 14.29158405191411
H-2A R/B                
1 27601U 02056E   25301.53542670  .00000444  00000+0  17039-3 0  9996
2 27601  98.2992 262.1097 0069887 194.4997 280.0780 14.33628058195173
CZ-4B R/B               
1 28059U 03049C   25301.47946739  .00000706  00000+0  17407-3 0  9994
2 28059  98.6756 286.3413 0047114 275.4511  84.1311 14.54844542167379
CZ-2C R/B               
1 28222U 04012C   25301.58567070  .00034673  00000+0  58022-3 0  9994
2 28222  97.7499 350.6029 0020921  77.2176 283.1411 15.51562200183719
SL-16 R/B               
1 28353U 04021B   25301.57694073 -.00000266  00000+0 -11360-3 0  9999
2 28353  70.9986 149.7406 0007291 249.8382 110.1957 14.14571548104153
CZ-4B R/B               
1 28415U 04035C   25301.53787071  .00010007  00000+0  38088-3 0  9998
2 28415  97.3673 332.5033 0035907  77.7183 282.8073 15.26329612159735
CZ-2C R/B               
1 28480U 04046B   25301.52021662  .00000228  00000+0  99888-4 0  9998
2 28480  98.1944 219.7192 0139354 185.2325 174.7408 14.26911070 89651
